<?xml version="1.0" encoding="UTF-8"?>
<gpx version="1.1" creator="Garmin Connect"
     xmlns="http://www.topografix.com/GPX/1/1"
     xmlns:gpxtpx="http://www.garmin.com/xmlschemas/TrackPointExtension/v1"
     xmlns:gpxx="http://www.garmin.com/xmlschemas/GpxExtensions/v3">
  <metadata>
    <name>Geghard to Garni</name>
  </metadata>
  <trk>
    <name>Geghard to Garni</name>
    <extensions>
      <gpxx:TrackExtension>
        <gpxx:DisplayColor>DarkGreen</gpxx:DisplayColor>
      </gpxx:TrackExtension>
    </extensions>
    <trkseg>
      <trkpt lat="40.1406" lon="44.8181">
        <ele>1712.0</ele>
        <time>2024-06-02T06:15:00Z</time>
        <extensions>
          <gpxtpx:TrackPointExtension>
            <gpxtpx:hr>128</gpxtpx:hr>
            <gpxtpx:cad>74</gpxtpx:cad>
            <gpxtpx:atemp>17</gpxtpx:atemp>
          </gpxtpx:TrackPointExtension>
        </extensions>
      </trkpt>
      <trkpt lat="40.1372" lon="44.8095">
        <ele>1655.4</ele>
        <time>2024-06-02T06:29:30Z</time>
        <extensions>
          <gpxtpx:TrackPointExtension>
            <gpxtpx:hr>141</gpxtpx:hr>
          </gpxtpx:TrackPointExtension>
        </extensions>
      </trkpt>
      <trkpt lat="40.1289" lon="44.7304">
        <ele>1418.7</ele>
        <time>2024-06-02T07:48:12Z</time>
      </trkpt>
    </trkseg>
  </trk>
</gpx>
